{
    "links": {
        "self": "http://www.neowsapp.com/rest/v1/neo/3291227?api_key=iIulBulltgU6a56xZRHN4H3l9WmuAYTsLGpBGhQ2"
    },
    "id": "3291227",
    "neo_reference_id": "3291227",
    "name": "(2005 SW9)",
    "designation": "2005 SW9",
    "nasa_jpl_url": "http://ssd.jpl.nasa.gov/sbdb.cgi?sstr=3291227",
    "absolute_magnitude_h": 19.6,
    "estimated_diameter": {
        "kilometers": {
            "estimated_diameter_min": 0.3195618867,
            "estimated_diameter_max": 0.7145621017
        },
        "meters": {
            "estimated_diameter_min": 319.5618867213,
            "estimated_diameter_max": 714.5621017269
        },
        "miles": {
            "estimated_diameter_min": 0.1985664891,
            "estimated_diameter_max": 0.4440081677
        },
        "feet": {
            "estimated_diameter_min": 1048.4314204307,
            "estimated_diameter_max": 2344.3639258298
        }
    },
    "is_potentially_hazardous_asteroid": false,
    "close_approach_data": [
        {
            "close_approach_date": "2005-10-10",
            "close_approach_date_full": "2005-Oct-10 12:26",
            "epoch_date_close_approach": 1128947160000,
            "relative_velocity": {
                "kilometers_per_second": "15.6925155937",
                "kilometers_per_hour": "56493.0561372534",
                "miles_per_hour": "35102.5881315061"
            },
            "miss_distance": {
                "astronomical": "0.1492807911",
                "lunar": "58.0702277379",
                "kilometers": "22332088.380474957",
                "miles": "13876516.2570181266"
            },
            "orbiting_body": "Earth"
        }
    ],
    "orbital_data": {
        "orbit_id": "8",
        "orbit_determination_date": "2017-04-06 09:10:26",
        "first_observation_date": "2005-09-25",
        "last_observation_date": "2005-09-29",
        "data_arc_in_days": 4,
        "observations_used": 33,
        "orbit_uncertainty": "9",
        "minimum_orbit_intersection": ".118081",
        "jupiter_tisserand_invariant": "3.513",
        "epoch_osculation": "2453640.5",
        "eccentricity": ".5847696620905384",
        "semi_major_axis": "2.055890591873388",
        "inclination": "15.72057289825034",
        "ascending_node_longitude": "226.6801054918467",
        "orbital_period": "1076.709204080527",
        "perihelion_distance": ".8536681451684701",
        "perihelion_argument": "194.4562129761647",
        "aphelion_distance": "3.258113038578307",
        "perihelion_time": "2453681.429766769945",
        "mean_anomaly": "346.3150458997301",
        "mean_motion": ".334352115348942",
        "equinox": "J2000",
        "orbit_class": {
            "orbit_class_type": "APO",
            "orbit_class_description": "Near-Earth asteroid orbits which cross the Earth’s orbit similar to that of 1862 Apollo",
            "orbit_class_range": "a (semi-major axis) > 1.0 AU; q (perihelion) < 1.017 AU"
        }
    },
    "is_sentry_object": false
}